[{"OBJECT_NAME":"ONEWEB-0703","OBJECT_ID":"2023-068Q","EPOCH":"2026-03-03T14:45:00.943200","MEAN_MOTION":13.15547268,"ECCENTRICITY":0.0001197,"INCLINATION":87.8945,"RA_OF_ASC_NODE":280.2863,"ARG_OF_PERICENTER":127.3285,"MEAN_ANOMALY":232.7955,"EPHEMERIS_TYPE":0,"CLASSIFICATION_TYPE":"U","NORAD_CAT_ID":56724,"ELEMENT_SET_NO":999,"REV_AT_EPOCH":13537,"BSTAR":-6.8869236e-5,"MEAN_MOTION_DOT":-1.3e-7,"MEAN_MOTION_DDOT":0},{"OBJECT_NAME":"ONEWEB-0721","OBJECT_ID":"2023-068R","EPOCH":"2026-03-03T14:16:53.759424","MEAN_MOTION":13.224616,"ECCENTRICITY":0.00018771,"INCLINATION":86.677,"RA_OF_ASC_NODE":119.2323,"ARG_OF_PERICENTER":101.5751,"MEAN_ANOMALY":258.5593,"EPHEMERIS_TYPE":0,"CLASSIFICATION_TYPE":"U","NORAD_CAT_ID":56725,"ELEMENT_SET_NO":999,"REV_AT_EPOCH":14398,"BSTAR":-9.6384701e-5,"MEAN_MOTION_DOT":-2.6e-7,"MEAN_MOTION_DDOT":0},{"OBJECT_NAME":"ONEWEB-0015","OBJECT_ID":"2024-188A","EPOCH":"2026-03-03T11:39:37.166976","MEAN_MOTION":13.11415433,"ECCENTRICITY":0.0001574,"INCLINATION":87.8847,"RA_OF_ASC_NODE":42.1135,"ARG_OF_PERICENTER":67.4319,"MEAN_ANOMALY":292.6976,"EPHEMERIS_TYPE":0,"CLASSIFICATION_TYPE":"U","NORAD_CAT_ID":61594,"ELEMENT_SET_NO":999,"REV_AT_EPOCH":7060,"BSTAR":-4.6534361e-5,"MEAN_MOTION_DOT":-4.0e-8,"MEAN_MOTION_DDOT":0},{"OBJECT_NAME":"ONEWEB-0687","OBJECT_ID":"2024-188B","EPOCH":"2026-03-03T10:50:26.574144","MEAN_MOTION":13.1764956,"ECCENTRICITY":0.0002099,"INCLINATION":87.9128,"RA_OF_ASC_NODE":26.8827,"ARG_OF_PERICENTER":67.6077,"MEAN_ANOMALY":292.5277,"EPHEMERIS_TYPE":0,"CLASSIFICATION_TYPE":"U","NORAD_CAT_ID":61595,"ELEMENT_SET_NO":999,"REV_AT_EPOCH":7197,"BSTAR":3.542552e-6,"MEAN_MOTION_DOT":1.4e-7,"MEAN_MOTION_DDOT":0},{"OBJECT_NAME":"ONEWEB-0688","OBJECT_ID":"2024-188C","EPOCH":"2026-03-03T09:42:24.340032","MEAN_MOTION":13.1764984,"ECCENTRICITY":0.00015016,"INCLINATION":87.9127,"RA_OF_ASC_NODE":26.8912,"ARG_OF_PERICENTER":39.0654,"MEAN_ANOMALY":321.0586,"EPHEMERIS_TYPE":0,"CLASSIFICATION_TYPE":"U","NORAD_CAT_ID":61596,"ELEMENT_SET_NO":999,"REV_AT_EPOCH":7196,"BSTAR":-7.3174299e-5,"MEAN_MOTION_DOT":-1.6e-7,"MEAN_MOTION_DDOT":0},{"OBJECT_NAME":"ONEWEB-0689","OBJECT_ID":"2024-188D","EPOCH":"2026-03-03T10:38:34.562112","MEAN_MOTION":13.11417894,"ECCENTRICITY":0.00021367,"INCLINATION":87.8865,"RA_OF_ASC_NODE":42.0612,"ARG_OF_PERICENTER":78.8321,"MEAN_ANOMALY":281.3047,"EPHEMERIS_TYPE":0,"CLASSIFICATION_TYPE":"U","NORAD_CAT_ID":61597,"ELEMENT_SET_NO":999,"REV_AT_EPOCH":7059,"BSTAR":-0.00035096159,"MEAN_MOTION_DOT":-1.12e-6,"MEAN_MOTION_DDOT":0},{"OBJECT_NAME":"ONEWEB-0690","OBJECT_ID":"2024-188E","EPOCH":"2026-03-03T10:53:14.239392","MEAN_MOTION":13.11417549,"ECCENTRICITY":0.00015288,"INCLINATION":87.8861,"RA_OF_ASC_NODE":42.0796,"ARG_OF_PERICENTER":105.0875,"MEAN_ANOMALY":255.0422,"EPHEMERIS_TYPE":0,"CLASSIFICATION_TYPE":"U","NORAD_CAT_ID":61598,"ELEMENT_SET_NO":999,"REV_AT_EPOCH":7077,"BSTAR":0.00071970382,"MEAN_MOTION_DOT":2.68e-6,"MEAN_MOTION_DDOT":0},{"OBJECT_NAME":"ONEWEB-0691","OBJECT_ID":"2024-188F","EPOCH":"2026-03-03T10:45:54.390816","MEAN_MOTION":13.11417408,"ECCENTRICITY":0.00017144,"INCLINATION":87.8867,"RA_OF_ASC_NODE":41.9805,"ARG_OF_PERICENTER":70.5788,"MEAN_ANOMALY":289.5525,"EPHEMERIS_TYPE":0,"CLASSIFICATION_TYPE":"U","NORAD_CAT_ID":61599,"ELEMENT_SET_NO":999,"REV_AT_EPOCH":7062,"BSTAR":0.00027235265,"MEAN_MOTION_DOT":1.09e-6,"MEAN_MOTION_DDOT":0},{"OBJECT_NAME":"ONEWEB-0692","OBJECT_ID":"2024-188G","EPOCH":"2026-03-03T11:15:13.033440","MEAN_MOTION":13.11415258,"ECCENTRICITY":0.00027083,"INCLINATION":87.8849,"RA_OF_ASC_NODE":42.1101,"ARG_OF_PERICENTER":94.0283,"MEAN_ANOMALY":266.1154,"EPHEMERIS_TYPE":0,"CLASSIFICATION_TYPE":"U","NORAD_CAT_ID":61600,"ELEMENT_SET_NO":999,"REV_AT_EPOCH":7061,"BSTAR":0.0014650413,"MEAN_MOTION_DOT":5.32e-6,"MEAN_MOTION_DDOT":0},{"OBJECT_NAME":"ONEWEB-0693","OBJECT_ID":"2024-188H","EPOCH":"2026-03-03T09:59:24.467424","MEAN_MOTION":13.17650625,"ECCENTRICITY":0.00012328,"INCLINATION":87.9127,"RA_OF_ASC_NODE":26.9106,"ARG_OF_PERICENTER":104.2508,"MEAN_ANOMALY":255.876,"EPHEMERIS_TYPE":0,"CLASSIFICATION_TYPE":"U","NORAD_CAT_ID":61601,"ELEMENT_SET_NO":999,"REV_AT_EPOCH":7195,"BSTAR":6.2975945e-5,"MEAN_MOTION_DOT":3.7e-7,"MEAN_MOTION_DDOT":0},{"OBJECT_NAME":"ONEWEB-0695","OBJECT_ID":"2024-188J","EPOCH":"2026-03-03T10:41:02.071104","MEAN_MOTION":13.11418866,"ECCENTRICITY":0.00024148,"INCLINATION":87.8849,"RA_OF_ASC_NODE":42.1059,"ARG_OF_PERICENTER":83.0258,"MEAN_ANOMALY":277.1144,"EPHEMERIS_TYPE":0,"CLASSIFICATION_TYPE":"U","NORAD_CAT_ID":61602,"ELEMENT_SET_NO":999,"REV_AT_EPOCH":7060,"BSTAR":-0.00026450489,"MEAN_MOTION_DOT":-8.1e-7,"MEAN_MOTION_DDOT":0},{"OBJECT_NAME":"ONEWEB-0697","OBJECT_ID":"2024-188K","EPOCH":"2026-03-03T11:27:25.352928","MEAN_MOTION":13.11414613,"ECCENTRICITY":0.00025588,"INCLINATION":87.885,"RA_OF_ASC_NODE":42.0887,"ARG_OF_PERICENTER":93.7271,"MEAN_ANOMALY":266.4149,"EPHEMERIS_TYPE":0,"CLASSIFICATION_TYPE":"U","NORAD_CAT_ID":61603,"ELEMENT_SET_NO":999,"REV_AT_EPOCH":7059,"BSTAR":0.00099210294,"MEAN_MOTION_DOT":3.64e-6,"MEAN_MOTION_DDOT":0},{"OBJECT_NAME":"ONEWEB-0698","OBJECT_ID":"2024-188L","EPOCH":"2026-03-03T10:55:40.904256","MEAN_MOTION":13.11417489,"ECCENTRICITY":0.00024272,"INCLINATION":87.8849,"RA_OF_ASC_NODE":42.1085,"ARG_OF_PERICENTER":112.4355,"MEAN_ANOMALY":247.703,"EPHEMERIS_TYPE":0,"CLASSIFICATION_TYPE":"U","NORAD_CAT_ID":61604,"ELEMENT_SET_NO":999,"REV_AT_EPOCH":7061,"BSTAR":0.00087688308,"MEAN_MOTION_DOT":3.23e-6,"MEAN_MOTION_DDOT":0},{"OBJECT_NAME":"ONEWEB-0699","OBJECT_ID":"2024-188M","EPOCH":"2026-03-03T12:52:53.648256","MEAN_MOTION":13.10370589,"ECCENTRICITY":0.00024294,"INCLINATION":87.8769,"RA_OF_ASC_NODE":57.3021,"ARG_OF_PERICENTER":98.0188,"MEAN_ANOMALY":262.1215,"EPHEMERIS_TYPE":0,"CLASSIFICATION_TYPE":"U","NORAD_CAT_ID":61605,"ELEMENT_SET_NO":999,"REV_AT_EPOCH":6947,"BSTAR":-0.0011873791,"MEAN_MOTION_DOT":-4.02e-6,"MEAN_MOTION_DDOT":0},{"OBJECT_NAME":"ONEWEB-0700","OBJECT_ID":"2024-188N","EPOCH":"2026-03-03T12:55:16.678272","MEAN_MOTION":13.10370276,"ECCENTRICITY":0.00025463,"INCLINATION":87.8781,"RA_OF_ASC_NODE":57.1955,"ARG_OF_PERICENTER":88.3795,"MEAN_ANOMALY":271.7624,"EPHEMERIS_TYPE":0,"CLASSIFICATION_TYPE":"U","NORAD_CAT_ID":61606,"ELEMENT_SET_NO":999,"REV_AT_EPOCH":6946,"BSTAR":-0.0013779579,"MEAN_MOTION_DOT":-4.68e-6,"MEAN_MOTION_DDOT":0},{"OBJECT_NAME":"ONEWEB-0701","OBJECT_ID":"2024-188P","EPOCH":"2026-03-03T11:29:13.545600","MEAN_MOTION":13.10374527,"ECCENTRICITY":0.00025996,"INCLINATION":87.8774,"RA_OF_ASC_NODE":57.3135,"ARG_OF_PERICENTER":98.0543,"MEAN_ANOMALY":262.0879,"EPHEMERIS_TYPE":0,"CLASSIFICATION_TYPE":"U","NORAD_CAT_ID":61607,"ELEMENT_SET_NO":999,"REV_AT_EPOCH":6946,"BSTAR":-0.0014365838,"MEAN_MOTION_DOT":-4.89e-6,"MEAN_MOTION_DDOT":0},{"OBJECT_NAME":"ONEWEB-0702","OBJECT_ID":"2024-188Q","EPOCH":"2026-03-03T10:11:42.664704","MEAN_MOTION":13.11417206,"ECCENTRICITY":0.00028605,"INCLINATION":87.8865,"RA_OF_ASC_NODE":42.0016,"ARG_OF_PERICENTER":90.583,"MEAN_ANOMALY":269.5626,"EPHEMERIS_TYPE":0,"CLASSIFICATION_TYPE":"U","NORAD_CAT_ID":61608,"ELEMENT_SET_NO":999,"REV_AT_EPOCH":7062,"BSTAR":-0.0014021511,"MEAN_MOTION_DOT":-4.84e-6,"MEAN_MOTION_DDOT":0}]
