ONEWEB-0703             
1 56724U 23068Q   26062.61459425 -.00000013  00000+0 -68869-4 0  9991
2 56724  87.8945 280.2863 0001197 127.3285 232.7955 13.15547268135376
ONEWEB-0721             
1 56725U 23068R   26062.59506666 -.00000026  00000+0 -96385-4 0  9997
2 56725  86.6770 119.2323 0001877 101.5751 258.5593 13.22461600143982
ONEWEB-0015             
1 61594U 24188A   26062.48584684 -.00000004  00000+0 -46534-4 0  9992
2 61594  87.8847  42.1135 0001574  67.4319 292.6976 13.11415433 70602
ONEWEB-0687             
1 61595U 24188B   26062.45169646  .00000014  00000+0  35426-5 0  9995
2 61595  87.9128  26.8827 0002099  67.6077 292.5277 13.17649560 71979
ONEWEB-0688             
1 61596U 24188C   26062.40444838 -.00000016  00000+0 -73174-4 0  9995
2 61596  87.9127  26.8912 0001501  39.0654 321.0586 13.17649840 71966
ONEWEB-0689             
1 61597U 24188D   26062.44345558 -.00000112  00000+0 -35096-3 0  9996
2 61597  87.8865  42.0612 0002136  78.8321 281.3047 13.11417894 70593
ONEWEB-0690             
1 61598U 24188E   26062.45363703  .00000268  00000+0  71970-3 0  9991
2 61598  87.8861  42.0796 0001528 105.0875 255.0422 13.11417549 70776
ONEWEB-0691             
1 61599U 24188F   26062.44854619  .00000109  00000+0  27235-3 0  9991
2 61599  87.8867  41.9805 0001714  70.5788 289.5525 13.11417408 70622
ONEWEB-0692             
1 61600U 24188G   26062.46890085  .00000532  00000+0  14650-2 0  9999
2 61600  87.8849  42.1101 0002708  94.0283 266.1154 13.11415258 70611
ONEWEB-0693             
1 61601U 24188H   26062.41625541  .00000037  00000+0  62976-4 0  9994
2 61601  87.9127  26.9106 0001232 104.2508 255.8760 13.17650625 71953
ONEWEB-0695             
1 61602U 24188J   26062.44516286 -.00000081  00000+0 -26450-3 0  9990
2 61602  87.8849  42.1059 0002414  83.0258 277.1144 13.11418866 70607
ONEWEB-0697             
1 61603U 24188K   26062.47737677  .00000364  00000+0  99210-3 0  9999
2 61603  87.8850  42.0887 0002558  93.7271 266.4149 13.11414613 70590
ONEWEB-0698             
1 61604U 24188L   26062.45533454  .00000323  00000+0  87688-3 0  9996
2 61604  87.8849  42.1085 0002427 112.4355 247.7030 13.11417489 70615
ONEWEB-0699             
1 61605U 24188M   26062.53673204 -.00000402  00000+0 -11874-2 0  9997
2 61605  87.8769  57.3021 0002429  98.0188 262.1215 13.10370589 69476
ONEWEB-0700             
1 61606U 24188N   26062.53838748 -.00000468  00000+0 -13780-2 0  9994
2 61606  87.8781  57.1955 0002546  88.3795 271.7624 13.10370276 69463
ONEWEB-0701             
1 61607U 24188P   26062.47862900 -.00000489  00000+0 -14366-2 0  9999
2 61607  87.8774  57.3135 0002599  98.0543 262.0879 13.10374527 69463
ONEWEB-0702             
1 61608U 24188Q   26062.42479936 -.00000484  00000+0 -14022-2 0  9992
2 61608  87.8865  42.0016 0002860  90.5830 269.5626 13.11417206 70626
